#aV2014  3 12  0  0  0.00000000     288 DD+AD WGS84 FIT  NGA
## 1783 259200.00000000   300.00000000 56728 0.0000000000000
+   31     1  2  3  4  5  7  8  9 10 11 12 13 14 15 16 17 18
+         19 20 21 22 23 24 25 26 27 28 29 30 31 32  0  0  0
+          0  0  0  0  0  0  0  0  0  0  0  0  0  0  0  0  0
+          0  0  0  0  0  0  0  0  0  0  0  0  0  0  0  0  0
+          0  0  0  0  0  0  0  0  0  0  0  0  0  0  0  0  0
++         2  2  2  2  2  2  2  2  2  2  2  2  2  2  2  2  2
++         2  2  2  2  2  2  2  2  2  2  2  2  2  2  0  0  0
++         0  0  0  0  0  0  0  0  0  0  0  0  0  0  0  0  0
++         0  0  0  0  0  0  0  0  0  0  0  0  0  0  0  0  0
++         0  0  0  0  0  0  0  0  0  0  0  0  0  0  0  0  0
%c cc cc ccc ccc cccc cccc cccc cccc ccccc ccccc ccccc ccccc
%c cc cc ccc ccc cccc cccc cccc cccc ccccc ccccc ccccc ccccc
%f  0.0000000  0.000000000  0.00000000000  0.000000000000000
%f  0.0000000  0.000000000  0.00000000000  0.000000000000000
%i    0    0    0    0      0      0      0      0         0
%i    0    0    0    0      0      0      0      0         0
/*      NGA, ST. LOUIS,MO.                                  
/*   EPHEMERIS COMPUTED FROM  1 DAYS OF DATA                
/*   EPOCHA SMOOTHER                                       
/* CCCCCCCCCCCCCCCCCCCCCCCCCCCCCCCCCCCCCCCCCCCCCCCCCCCCCCCCC
*  2014  3 12  8 20  0.00000000
P  1  22939.842913  13338.520225   2207.966606      3.624978                    
V  1    874.757290   3806.392430 -31515.842292      0.018712                    
P  2  -8571.988388 -19495.296264  16444.829921    483.441537                    
V  2  18176.759752   9104.874613  20113.856293      0.021858                    
P  3   5292.091722  15530.704806 -21411.072732    337.104645                    
V  3 -21620.040178  14548.680452   5510.102666      0.051494                    
P  4   7773.584659 -13475.012104  21215.754245      6.045268                    
V  4  23443.186011  14860.452821   1074.197721      0.002142                    
P  5  -3765.480640 -25239.588049  -7088.282483   -384.721327                    
V  5   3658.385250  -8826.281734  29808.808333      0.018513                    
P  7  21850.621738   2672.148900 -15024.727263    323.107820                    
V  7  14791.738635  12091.720688  23238.400574      0.041878                    
P  8  15047.265046  -5231.350575 -21223.507634     12.264122                    
V  8  20526.985894  17654.115761   9546.623347      0.001500                    
P  9  13498.198361  -8507.654087 -21794.680737    311.775367                    
V  9  21787.438550  14793.820738   7751.999349      0.028766                    
P 10   9194.679605 -22216.793553  10466.395064   -117.772594                    
V 10   2381.850381  14167.339472  27539.048346     -0.014694                    
P 11  21675.030313  13199.396128  -8677.671295   -471.395934                    
V 11 -11213.507091   1364.240496 -27251.997802     -0.032222                    
P 12 -11526.122662 -14080.766317  19373.478841    191.653975                    
V 12   3171.475708 -24387.022267 -15576.275165      0.023867                    
P 13  25176.979570  -4075.955542   7548.722677     21.053704                    
V 13  -8366.431900   5343.896470  30092.160469     -0.038892                    
P 14 -20445.189503  14701.916599   8420.012571    191.200468                    
V 14 -10549.063902   1781.357492 -29612.405159     -0.032534                    
P 15 -13904.459238  -9625.476440 -20592.127738   -167.758720                    
V 15  22426.423959 -13288.316451  -8665.690313     -0.021130                    
P 16   2015.159661  25257.441696  -7344.586903   -228.091847                    
V 16  -3178.392338   9043.082375  30728.681773      0.016085                    
P 17  18915.663840 -15883.576273   9700.209868    -75.636345                    
V 17  11961.965172  -2713.501161 -28745.693995     -0.032988                    
P 18 -15399.540701   6882.427148 -20011.331496    306.788451                    
V 18    -73.253921 -26636.215704  -9245.135181      0.021051                    
P 19  11906.942346  11104.305997 -21191.309440   -444.216516                    
V 19 -24512.925590  10116.702889  -8088.135952     -0.023710                    
P 20  14254.941656  11709.136454  18941.697564    169.280008                    
V 20  -1632.331781  24561.016845 -13743.290545      0.035087                    
P 21 -21438.960241   -320.895214 -15349.857041   -348.874043                    
V 21 -15892.691300 -13186.741996  21135.854062     -0.022400                    
P 22 -11356.456791  19490.832524 -13696.021527    218.996725                    
V 22  -2270.737703 -18027.445907 -23585.584332      0.027732                    
P 23  20125.667564   3776.049378  17226.511185     -3.168332                    
V 23 -18636.032310  10954.881912  19076.361342     -0.032115                    
P 24 -21070.203717 -15984.981225  -2954.151908    -24.793838                    
V 24   4657.201762   -362.086730 -31328.965662     -0.006273                    
P 25 -14876.561828     61.404814  21938.447091     18.178720                    
V 25   1340.669652 -27930.276616   1110.441902      0.014696                    
P 26   -849.193225 -15681.843162 -22040.411493    141.105111                    
V 26  24825.983314  -9085.940415   5982.595994     -0.110022                    
P 27  -1425.720069  16767.938051 -20538.982948    -20.285787                    
V 27 -23688.276168  10961.466904  10636.847805     -0.003520                    
P 28  12547.637597 -16562.469767 -15856.842241    338.949156                    
V 28   -874.163495  21318.620015 -22256.747194      0.029187                    
P 29 -24363.456646   3179.111349  10075.126868    517.449587                    
V 29  10713.932020  -7258.523834  28366.691501      0.028541                    
P 30  18835.912106  -2054.623373 -18786.657555      3.712036                    
V 30  17833.084382  15565.822826  16164.883188      0.014089                    
P 31  -3615.122563  15180.076737  21603.249048    333.772388                    
V 31 -22534.472401 -14991.817413   7118.078986      0.001898                    
P 32   6037.198279  22792.175035  12806.052271   -470.718133                    
V 32  -4431.739573  15512.555309 -25110.576245      0.070741                    
EOF
